NORAD_CAT_ID,OBJECT_NAME,OBJECT_TYPE,EPOCH,MEAN_MOTION,ECCENTRICITY,INCLINATION,RA_OF_ASC_NODE,ARG_OF_PERICENTER,MEAN_ANOMALY,BSTAR,MEAN_MOTION_DOT,MEAN_MOTION_DDOT,TLE_LINE0,TLE_LINE1,TLE_LINE2,SEMIMAJOR_AXIS,PERIOD,APOGEE,PERIGEE,DECAYED
55917.0,STARLINK-5855,PAYLOAD,2023-06-21 00:35:26,14.98370333,0.0003287,70.0001,287.3903,271.7787,88.2996,-0.00067841,-8.187e-05,0.0,0 STARLINK-5855,1 55917U 23037D   23172.02460922 -.00008187  00000-0 -67841-3 0  9997,2 55917  70.0001 287.3903 0003287 271.7787  88.2996 14.98370333 15131,6950.068,96.104,574.218,569.649,0.0
55917.0,STARLINK-5855,PAYLOAD,2023-06-21 11:48:24,14.98297626,0.0003298,70.0005,286.2135,263.9287,96.1497,0.00050971,5.989e-05,0.0,0 STARLINK-5855,1 55917U 23037D   23172.49194730  .00005989  00000-0  50971-3 0  9990,2 55917  70.0005 286.2135 0003298 263.9287  96.1497 14.98297626 15205,6950.293,96.109,574.45,569.866,0.0
55917.0,STARLINK-5855,PAYLOAD,2023-06-21 13:24:32,14.9829864,0.000329,70.0005,286.0452,263.7848,96.2936,0.00050138,5.89e-05,0.0,0 STARLINK-5855,1 55917U 23037D   23172.55870783  .00005890  00000-0  50138-3 0  9992,2 55917  70.0005 286.0452 0003290 263.7848  96.2936 14.98298640 14876,6950.29,96.109,574.442,569.868,0.0
55917.0,STARLINK-5855,PAYLOAD,2023-06-21 18:12:55,14.9833381,0.0003154,70.0003,285.5398,267.894,92.1858,-0.00010194,-1.309e-05,0.0,0 STARLINK-5855,1 55917U 23037D   23172.75897853 -.00001309  00000-0 -10194-3 0  9992,2 55917  70.0003 285.5398 0003154 267.8940  92.1858 14.98333810 15243,6950.181,96.107,574.238,569.854,0.0
55917.0,STARLINK-5855,PAYLOAD,2023-06-22 18:14:56,14.98337726,0.0003403,69.9994,283.0139,269.6394,90.4375,-7.954e-06,-1.88e-06,0.0,0 STARLINK-5855,1 55917U 23037D   23173.76037175 -.00000188  00000-0 -79540-5 0  9993,2 55917  69.9994 283.0139 0003403 269.6394  90.4375 14.98337726 15396,6950.169,96.107,574.399,569.669,0.0
55917.0,STARLINK-5855,PAYLOAD,2023-06-23 10:16:17,14.98327288,0.0003274,69.9994,281.3304,269.7261,90.3523,5.0009e-05,5.04e-06,0.0,0 STARLINK-5855,1 55917U 23037D   23174.42797646  .00000504  00000-0  50009-4 0  9991,2 55917  69.9994 281.3304 0003274 269.7261  90.3523 14.98327288 15498,6950.201,96.107,574.342,569.791,0.0
55917.0,STARLINK-5855,PAYLOAD,2023-06-23 16:40:48,14.9833531,0.000342,69.9992,280.6569,272.1797,87.8971,9.0827e-05,9.91e-06,0.0,0 STARLINK-5855,1 55917U 23037D   23174.69501016  .00000991  00000-0  90827-4 0  9996,2 55917  69.9992 280.6569 0003420 272.1797  87.8971 14.98335310 15534,6950.176,96.107,574.418,569.665,0.0
55917.0,STARLINK-5855,PAYLOAD,2023-06-24 00:41:29,14.9832817,0.0003363,69.9993,279.8146,269.885,90.1924,9.4555e-05,1.035e-05,0.0,0 STARLINK-5855,1 55917U 23037D   23175.02881385  .00001035  00000-0  94555-4 0  9996,2 55917  69.9993 279.8146 0003363 269.8850  90.1924 14.98328170 15581,6950.199,96.107,574.401,569.726,0.0
55917.0,STARLINK-5855,PAYLOAD,2023-06-24 08:42:10,14.98323781,0.0003311,69.9993,278.973,269.0252,91.0527,-2.0706e-05,-3.4e-06,0.0,0 STARLINK-5855,1 55917U 23037D   23175.36261980 -.00000340  00000-0 -20706-4 0  9993,2 55917  69.9993 278.9730 0003311 269.0252  91.0527 14.98323781 15639,6950.212,96.107,574.378,569.776,0.0
55917.0,STARLINK-5855,PAYLOAD,2023-06-24 16:42:49,14.98336307,0.0003416,69.999,278.1319,268.0909,91.9859,6.9198e-05,7.33e-06,0.0,0 STARLINK-5855,1 55917U 23037D   23175.69640980  .00000733  00000-0  69198-4 0  9992,2 55917  69.9990 278.1319 0003416 268.0909  91.9859 14.98336307 15685,6950.173,96.107,574.413,569.664,0.0
55917.0,STARLINK-5855,PAYLOAD,2023-06-25 00:43:30,14.98336828,0.0003512,69.9991,277.2897,263.7289,96.347,-0.00023069,-2.845e-05,0.0,0 STARLINK-5855,1 55917U 23037D   23176.03021516 -.00002845  00000-0 -23069-3 0  9993,2 55917  69.9991 277.2897 0003512 263.7289  96.3470 14.98336828 15739,6950.172,96.107,574.478,569.596,0.0
55917.0,STARLINK-5855,PAYLOAD,2023-06-25 16:44:50,14.98337343,0.0003349,69.9992,275.6072,269.8308,90.2467,4.5798e-05,4.54e-06,0.0,0 STARLINK-5855,1 55917U 23037D   23176.69780914  .00000454  00000-0  45798-4 0  9995,2 55917  69.9992 275.6072 0003349 269.8308  90.2467 14.98337343 15837,6950.17,96.107,574.363,569.708,0.0
55917.0,STARLINK-5855,PAYLOAD,2023-06-26 08:46:12,14.98321919,0.0003086,70.0,273.9251,268.4769,91.6036,-1.143e-05,-2.29e-06,0.0,0 STARLINK-5855,1 55917U 23037D   23177.36542086 -.00000229  00000-0 -11430-4 0  9994,2 55917  70.0000 273.9251 0003086 268.4769  91.6036 14.98321919 15934,6950.218,96.108,574.228,569.938,0.0
55917.0,STARLINK-5855,PAYLOAD,2023-06-27 10:24:21,14.98331155,0.000321,69.9995,271.2311,267.6987,92.3804,-5.581e-06,-1.6e-06,0.0,0 STARLINK-5855,1 55917U 23037D   23178.43357654 -.00000160  00000-0 -55810-5 0  9993,2 55917  69.9995 271.2311 0003210 267.6987  92.3804 14.98331155 16096,6950.189,96.107,574.285,569.823,0.0
55917.0,STARLINK-5855,PAYLOAD,2023-06-28 10:26:21,14.98327774,0.0003285,69.9994,268.7065,265.0866,94.9918,4.8652e-05,4.87e-06,0.0,0 STARLINK-5855,1 55917U 23037D   23179.43497590  .00000487  00000-0  48652-4 0  9993,2 55917  69.9994 268.7065 0003285 265.0866  94.9918 14.98327774 16245,6950.2,96.107,574.348,569.782,0.0
55917.0,STARLINK-5855,PAYLOAD,2023-06-29 10:28:22,14.98335065,0.0003351,69.9991,266.1816,269.2788,90.7987,5.3232e-05,5.42e-06,0.0,0 STARLINK-5855,1 55917U 23037D   23180.43636932  .00000542  00000-0  53232-4 0  9992,2 55917  69.9991 266.1816 0003351 269.2788  90.7987 14.98335065 16399,6950.177,96.107,574.371,569.713,0.0
55917.0,STARLINK-5855,PAYLOAD,2023-06-30 15:18:46,14.98336827,0.0003409,69.999,263.1512,268.9718,91.105,3.4677e-05,3.21e-06,0.0,0 STARLINK-5855,1 55917U 23037D   23181.63804288  .00000321  00000-0  34677-4 0  9993,2 55917  69.9990 263.1512 0003409 268.9718  91.1050 14.98336827 16574,6950.172,96.107,574.406,569.667,0.0
55917.0,STARLINK-5855,PAYLOAD,2023-07-01 08:56:14,14.98345772,0.0003442,69.9988,261.2994,268.9181,91.1583,9.2795e-05,1.015e-05,0.0,0 STARLINK-5855,1 55917U 23037D   23182.37238963  .00001015  00000-0  92795-4 0  9992,2 55917  69.9988 261.2994 0003442 268.9181  91.1583 14.98345772 16687,6950.144,96.106,574.401,569.617,0.0
55917.0,STARLINK-5855,PAYLOAD,2023-07-02 10:34:21,14.98353978,0.0003476,69.9987,258.6062,268.9526,91.1235,0.00018511,2.118e-05,0.0,0 STARLINK-5855,1 55917U 23037D   23183.44052704  .00002118  00000-0  18511-3 0  9996,2 55917  69.9987 258.6062 0003476 268.9526  91.1235 14.98353978 16841,6950.119,96.105,574.4,569.568,0.0
55917.0,STARLINK-5855,PAYLOAD,2023-07-02 21:47:16,14.98362975,0.000352,69.9986,257.4279,269.0307,91.0449,0.00017923,2.048e-05,0.0,0 STARLINK-5855,1 55917U 23037D   23183.90783253  .00002048  00000-0  17923-3 0  9995,2 55917  69.9986 257.4279 0003520 269.0307  91.0449 14.98362975 16917,6950.091,96.105,574.402,569.509,0.0
55917.0,STARLINK-5855,PAYLOAD,2023-07-03 12:12:27,14.98373362,0.0003564,69.9985,255.9125,269.7699,90.3052,0.00017469,1.994e-05,0.0,0 STARLINK-5855,1 55917U 23037D   23184.50865069  .00001994  00000-0  17469-3 0  9992,2 55917  69.9985 255.9125 0003564 269.7699  90.3052 14.98373362 17003,6950.059,96.104,574.401,569.447,0.0
55917.0,STARLINK-5855,PAYLOAD,2023-07-04 12:14:24,14.98389401,0.0003618,69.9984,253.3875,270.8517,89.2228,0.0001911,2.191e-05,0.0,0 STARLINK-5855,1 55917U 23037D   23185.51000581  .00002191  00000-0  19110-3 0  9999,2 55917  69.9984 253.3875 0003618 270.8517  89.2228 14.98389401 17157,6950.009,96.103,574.389,569.36,0.0
55917.0,STARLINK-5855,PAYLOAD,2023-07-05 10:40:12,14.98405469,0.0003668,69.9984,251.0309,268.1957,91.8782,0.00017199,1.964e-05,0.0,0 STARLINK-5855,1 55917U 23037D   23186.44459400  .00001964  00000-0  17199-3 0  9992,2 55917  69.9984 251.0309 0003668 268.1957  91.8782 14.98405469 17299,6949.96,96.102,574.374,569.275,0.0
55917.0,STARLINK-5855,PAYLOAD,2023-07-06 05:53:45,14.98418599,0.000372,69.9982,249.0104,268.1811,91.8922,0.00013826,1.561e-05,0.0,0 STARLINK-5855,1 55917U 23037D   23187.24566354  .00001561  00000-0  13826-3 0  9994,2 55917  69.9982 249.0104 0003720 268.1811  91.8922 14.98418599 17413,6949.919,96.101,574.369,569.199,0.0
55917.0,STARLINK-5855,PAYLOAD,2023-07-06 21:55:01,14.98427082,0.0003706,69.9983,247.3271,267.9621,92.1114,0.00017774,2.034e-05,0.0,0 STARLINK-5855,1 55917U 23037D   23187.91321601  .00002034  00000-0  17774-3 0  9994,2 55917  69.9983 247.3271 0003706 267.9621  92.1114 14.98427082 17515,6949.893,96.101,574.333,569.182,0.0
55917.0,STARLINK-5855,PAYLOAD,2023-07-07 10:44:02,14.98436471,0.0003736,69.9983,245.9804,268.2542,91.819,0.00016429,1.873e-05,0.0,0 STARLINK-5855,1 55917U 23037D   23188.44725437  .00001873  00000-0  16429-3 0  9994,2 55917  69.9983 245.9804 0003736 268.2542  91.8190 14.98436471 17590,6949.864,96.1,574.325,569.132,0.0
55917.0,STARLINK-5855,PAYLOAD,2023-07-08 02:45:18,14.98448412,0.0003716,69.9982,244.2969,268.1627,91.9106,0.00019267,2.214e-05,0.0,0 STARLINK-5855,1 55917U 23037D   23189.11479635  .00002214  00000-0  19267-3 0  9998,2 55917  69.9982 244.2969 0003716 268.1627  91.9106 14.98448412 17691,6949.827,96.099,574.274,569.109,0.0
55917.0,STARLINK-5855,PAYLOAD,2023-07-08 20:22:41,14.98458777,0.0003742,69.9981,242.4453,268.413,91.66,0.000194,2.23e-05,0.0,0 STARLINK-5855,1 55917U 23037D   23189.84908960  .00002230  00000-0  19400-3 0  9993,2 55917  69.9981 242.4453 0003742 268.4130  91.6600 14.98458777 17803,6949.795,96.099,574.26,569.059,0.0
55917.0,STARLINK-5855,PAYLOAD,2023-07-09 12:23:56,14.9846844,0.0003818,69.9979,240.7615,269.317,90.7552,0.00015879,1.809e-05,0.0,0 STARLINK-5855,1 55917U 23037D   23190.51662491  .00001809  00000-0  15879-3 0  9992,2 55917  69.9979 240.7615 0003818 269.3170  90.7552 14.98468440 17904,6949.765,96.098,574.283,568.976,0.0
55917.0,STARLINK-5855,PAYLOAD,2023-07-10 02:49:03,14.98478601,0.0003848,69.9978,239.2464,268.1534,91.9185,0.00012068,1.353e-05,0.0,0 STARLINK-5855,1 55917U 23037D   23191.11740251  .00001353  00000-0  12068-3 0  9991,2 55917  69.9978 239.2464 0003848 268.1534  91.9185 14.98478601 17996,6949.733,96.097,574.273,568.924,0.0
